{
  "type": "FeatureCollection",
  "features": [
    {
      "type": "Feature",
      "properties": {
        "norad_id": 32352,
        "name": "FENGYUN 1C DEB",
        "group": "fengyun-1c-debris",
        "lat": 78.49392448263652,
        "lon": -152.0383938743663,
        "alt_km": 783.864669464403,
        "timestamp": "2025-12-03T13:52:09.848269+00:00",
        "meta_object_name": "FENGYUN 1C DEB",
        "meta_object_id": "1999-025CYV",
        "meta_epoch": "2025-11-20T12:15:50.090688",
        "meta_mean_motion": 14.41367482,
        "meta_eccentricity": 0.01211409,
        "meta_inclination": 98.777,
        "meta_ra_of_asc_node": 243.9147,
        "meta_arg_of_pericenter": 237.6539,
        "meta_mean_anomaly": 121.2876,
        "meta_ephemeris_type": 0,
        "meta_classification_type": "U",
        "meta_norad_cat_id": 32352,
        "meta_element_set_no": 999,
        "meta_rev_at_epoch": 64949,
        "meta_bstar": 0.00030092494,
        "meta_mean_motion_dot": 1.012e-05,
        "meta_mean_motion_ddot": 0,
        "tle_line1": "1 32352U 99025CYV 25324.51099642  .00001012  00000+0  30092-3 0  9992",
        "tle_line2": "2 32352  98.7770 243.9147 0121140 237.6539 121.2876 14.41367482649498"
      },
      "geometry": {
        "type": "Point",
        "coordinates": [
          -152.0383938743663,
          78.49392448263652
        ]
      }
    },
    {
      "type": "Feature",
      "properties": {
        "norad_id": 32353,
        "name": "FENGYUN 1C DEB",
        "group": "fengyun-1c-debris",
        "lat": 53.130761631614256,
        "lon": 142.11548332851353,
        "alt_km": 965.9510762084919,
        "timestamp": "2025-12-03T13:52:09.848279+00:00",
        "meta_object_name": "FENGYUN 1C DEB",
        "meta_object_id": "1999-025CYW",
        "meta_epoch": "2025-11-11T06:05:01.772736",
        "meta_mean_motion": 14.03377644,
        "meta_eccentricity": 0.01260396,
        "meta_inclination": 98.9214,
        "meta_ra_of_asc_node": 132.3044,
        "meta_arg_of_pericenter": 286.1717,
        "meta_mean_anomaly": 72.5609,
        "meta_ephemeris_type": 0,
        "meta_classification_type": "U",
        "meta_norad_cat_id": 32353,
        "meta_element_set_no": 999,
        "meta_rev_at_epoch": 62752,
        "meta_bstar": 0.0037928572,
        "meta_mean_motion_dot": 6.321e-05,
        "meta_mean_motion_ddot": 0,
        "tle_line1": "1 32353U 99025CYW 25315.25349274  .00006321  00000+0  37929-2 0  9996",
        "tle_line2": "2 32353  98.9214 132.3044 0126039 286.1717  72.5609 14.03377644627521"
      },
      "geometry": {
        "type": "Point",
        "coordinates": [
          142.11548332851353,
          53.130761631614256
        ]
      }
    },
    {
      "type": "Feature",
      "properties": {
        "norad_id": 32355,
        "name": "FENGYUN 1C DEB",
        "group": "fengyun-1c-debris",
        "lat": 45.07331818258948,
        "lon": 93.125419143744,
        "alt_km": 460.97645486965666,
        "timestamp": "2025-12-03T13:52:09.848289+00:00",
        "meta_object_name": "FENGYUN 1C DEB",
        "meta_object_id": "1999-025CYY",
        "meta_epoch": "2025-11-30T13:45:12.852288",
        "meta_mean_motion": 15.2698689,
        "meta_eccentricity": 0.00340494,
        "meta_inclination": 100.3462,
        "meta_ra_of_asc_node": 258.4114,
        "meta_arg_of_pericenter": 91.868,
        "meta_mean_anomaly": 83.2659,
        "meta_ephemeris_type": 0,
        "meta_classification_type": "U",
        "meta_norad_cat_id": 32355,
        "meta_element_set_no": 999,
        "meta_rev_at_epoch": 64804,
        "meta_bstar": 0.0114101,
        "meta_mean_motion_dot": 0.00320062,
        "meta_mean_motion_ddot": 0,
        "tle_line1": "1 32355U 99025CYY 25334.57306542  .00320062  00000+0  11410-1 0  9992",
        "tle_line2": "2 32355 100.3462 258.4114 0034049  91.8680  83.2659 15.26986890648042"
      },
      "geometry": {
        "type": "Point",
        "coordinates": [
          93.125419143744,
          45.07331818258948
        ]
      }
    },
    {
      "type": "Feature",
      "properties": {
        "norad_id": 32356,
        "name": "FENGYUN 1C DEB",
        "group": "fengyun-1c-debris",
        "lat": -72.78705736317187,
        "lon": -29.27748008426909,
        "alt_km": 957.7730504571573,
        "timestamp": "2025-12-03T13:52:09.848300+00:00",
        "meta_object_name": "FENGYUN 1C DEB",
        "meta_object_id": "1999-025CYZ",
        "meta_epoch": "2025-12-02T19:31:55.938432",
        "meta_mean_motion": 14.03271885,
        "meta_eccentricity": 0.01242517,
        "meta_inclination": 102.4963,
        "meta_ra_of_asc_node": 195.3889,
        "meta_arg_of_pericenter": 39.4468,
        "meta_mean_anomaly": 321.5651,
        "meta_ephemeris_type": 0,
        "meta_classification_type": "U",
        "meta_norad_cat_id": 32356,
        "meta_element_set_no": 999,
        "meta_rev_at_epoch": 68248,
        "meta_bstar": 0.0027973607,
        "meta_mean_motion_dot": 4.604e-05,
        "meta_mean_motion_ddot": 0,
        "tle_line1": "1 32356U 99025CYZ 25336.81384188  .00004604  00000+0  27974-2 0  9998",
        "tle_line2": "2 32356 102.4963 195.3889 0124251  39.4468 321.5651 14.03271885682488"
      },
      "geometry": {
        "type": "Point",
        "coordinates": [
          -29.27748008426909,
          -72.78705736317187
        ]
      }
    },
    {
      "type": "Feature",
      "properties": {
        "norad_id": 32357,
        "name": "FENGYUN 1C DEB",
        "group": "fengyun-1c-debris",
        "lat": 23.706383330132397,
        "lon": -158.45029689649684,
        "alt_km": 789.1489920757704,
        "timestamp": "2025-12-03T13:52:09.848310+00:00",
        "meta_object_name": "FENGYUN 1C DEB",
        "meta_object_id": "1999-025CZA",
        "meta_epoch": "2025-12-01T08:46:16.056768",
        "meta_mean_motion": 13.68446249,
        "meta_eccentricity": 0.04916808,
        "meta_inclination": 98.8574,
        "meta_ra_of_asc_node": 15.5829,
        "meta_arg_of_pericenter": 217.6649,
        "meta_mean_anomaly": 209.2141,
        "meta_ephemeris_type": 0,
        "meta_classification_type": "U",
        "meta_norad_cat_id": 32357,
        "meta_element_set_no": 999,
        "meta_rev_at_epoch": 66632,
        "meta_bstar": 0.0030086821,
        "meta_mean_motion_dot": 5.99e-05,
        "meta_mean_motion_ddot": 0,
        "tle_line1": "1 32357U 99025CZA 25335.36546362  .00005990  00000+0  30087-2 0  9990",
        "tle_line2": "2 32357  98.8574  15.5829 0491680 217.6649 209.2141 13.68446249666325"
      },
      "geometry": {
        "type": "Point",
        "coordinates": [
          -158.45029689649684,
          23.706383330132397
        ]
      }
    },
    {
      "type": "Feature",
      "properties": {
        "norad_id": 32361,
        "name": "FENGYUN 1C DEB",
        "group": "fengyun-1c-debris",
        "lat": -59.58988250859227,
        "lon": -159.38786482939824,
        "alt_km": 762.7299514210645,
        "timestamp": "2025-12-03T13:52:09.848321+00:00",
        "meta_object_name": "FENGYUN 1C DEB",
        "meta_object_id": "1999-025CZE",
        "meta_epoch": "2025-11-30T15:14:44.805984",
        "meta_mean_motion": 14.50750787,
        "meta_eccentricity": 0.00468278,
        "meta_inclination": 98.8638,
        "meta_ra_of_asc_node": 32.9334,
        "meta_arg_of_pericenter": 80.9929,
        "meta_mean_anomaly": 279.656,
        "meta_ephemeris_type": 0,
        "meta_classification_type": "U",
        "meta_norad_cat_id": 32361,
        "meta_element_set_no": 999,
        "meta_rev_at_epoch": 96169,
        "meta_bstar": 0.0020354767,
        "meta_mean_motion_dot": 8.08e-05,
        "meta_mean_motion_ddot": 0,
        "tle_line1": "1 32361U 99025CZE 25334.63524081  .00008080  00000+0  20355-2 0  9998",
        "tle_line2": "2 32361  98.8638  32.9334 0046827  80.9929 279.6560 14.50750787961697"
      },
      "geometry": {
        "type": "Point",
        "coordinates": [
          -159.38786482939824,
          -59.58988250859227
        ]
      }
    },
    {
      "type": "Feature",
      "properties": {
        "norad_id": 32362,
        "name": "FENGYUN 1C DEB",
        "group": "fengyun-1c-debris",
        "lat": -16.053753490986754,
        "lon": 125.75139265493162,
        "alt_km": 1094.1761921024827,
        "timestamp": "2025-12-03T13:52:09.848331+00:00",
        "meta_object_name": "FENGYUN 1C DEB",
        "meta_object_id": "1999-025CZF",
        "meta_epoch": "2025-12-02T15:46:36.291936",
        "meta_mean_motion": 13.65074661,
        "meta_eccentricity": 0.02761813,
        "meta_inclination": 99.8438,
        "meta_ra_of_asc_node": 307.6809,
        "meta_arg_of_pericenter": 310.7121,
        "meta_mean_anomaly": 47.0326,
        "meta_ephemeris_type": 0,
        "meta_classification_type": "U",
        "meta_norad_cat_id": 32362,
        "meta_element_set_no": 999,
        "meta_rev_at_epoch": 90992,
        "meta_bstar": 0.0045510285,
        "meta_mean_motion_dot": 4.736e-05,
        "meta_mean_motion_ddot": 0,
        "tle_line1": "1 32362U 99025CZF 25336.65736449  .00004736  00000+0  45510-2 0  9990",
        "tle_line2": "2 32362  99.8438 307.6809 0276181 310.7121  47.0326 13.65074661909922"
      },
      "geometry": {
        "type": "Point",
        "coordinates": [
          125.75139265493162,
          -16.053753490986754
        ]
      }
    }
  ]
}